0 CUTE-1
1 27844U 03031E   26161.29335645  .00000255  00000-0  12935-3 0  9990
2 27844  98.6735 169.9388 0009062 198.4654 161.6197 14.24331486190695
0 CUBESAT XI 4
1 27848U 03031J   26161.55949117  .00000214  00000-0  11309-3 0  9997
2 27848  98.6767 169.9197 0008637 217.5980 142.4596 14.23617305190432
0 CUBESAT XI 5
1 28895U 05043F   26161.33614102  .00001246  00000-0  20389-3 0  9998
2 28895  98.2977 316.8144 0013219 223.4430 136.5736 14.72613094100747
0 CUTE-1.7+APD 2
1 32785U 08021C   26161.61958555  .00004983  00000-0  31564-3 0  9992
2 32785  97.8272 142.9015 0010327  58.2820 301.9414 15.09391098984202
0 CANX-2
1 32790U 08021H   26161.17696401  .00003090  00000-0  21877-3 0  9992
2 32790  97.8622 140.8188 0011829  71.3594 288.8915 15.05562263983755
0 SEEDS
1 32791U 08021J   26161.47612768  .00016320  00000-0  52179-3 0  9999
2 32791  97.7516 159.0539 0002042  26.6798 333.4547 15.32520473986269
0 SWISSCUBE
1 35932U 09051B   26160.71112973  .00000922  00000-0  19187-3 0  9995
2 35932  98.4042  68.4691 0005562 230.1201 129.9511 14.62467613888060
0 BEESAT
1 35933U 09051C   26161.53812297  .00000716  00000-0  15360-3 0  9993
2 35933  98.3971  68.9599 0003944 243.2961 116.7836 14.61709764888219
0 ITUPSAT 1
1 35935U 09051E   26160.97508610  .00000673  00000-0  14898-3 0  9990
2 35935  98.4056  67.5878 0006125 261.1078  98.9428 14.60430038887685
0 TISAT 1
1 36799U 10035E   26161.58378710  .00018113  00000-0  59832-3 0  9992
2 36799  98.0700 107.5480 0000465 172.0395 188.0852 15.31457089866697
0 AEROCUBE 4.5A
1 38767U 12048K   26161.06974765  .00355417  54094-4  11263-2 0  9992
2 38767  64.6258  52.8485 0019678 217.3689 142.6104 15.90634459371525
0 STRAND 1
1 39090U 13009E   26161.23306514  .00000258  00000-0  10110-3 0  9995
2 39090  98.3921 341.6387 0007466 249.0407 110.9981 14.37159178696068
0 BRITE-A TUGSAT-1
1 39091U 13009F   26161.31259207  .00000151  00000-0  66105-4 0  9999
2 39091  98.3993 340.9187 0008977 259.7198 100.2977 14.36539349696069
0 NEE 01 PEGASUS
1 39151U 13018B   26160.89654302  .00002457  00000-0  23819-3 0  9998
2 39151  98.1215 304.8067 0012551 181.9337 178.1836 14.93627979709615
0 POPACS 2
1 39269U 13055E   26161.26452525  .00012321  00000-0  20956-3 0  9994
2 39269  80.9903 152.1156 0417121 216.0318 141.2122 14.91044989662183
0 POPACS 3
1 39270U 13055F   26161.24770905  .00010174  00000-0  23925-3 0  9992
2 39270  81.0014 236.7086 0552745  91.1070 275.3476 14.55994863637548
0 ZACUBE
1 39417U 13066B   26161.14175542  .00003283  00000-0  25692-3 0  9998
2 39417  97.8088 123.4403 0040113 272.4357  87.2274 15.01145439679670
0 WNISAT 1
1 39423U 13066H   26161.34847701  .00000647  00000-0  12694-3 0  9999
2 39423  97.7194 310.9904 0161723 253.3006 105.0390 14.58051388665733
0 TRITON 1
1 39427U 13066M   26161.60997272  .00001014  00000-0  12745-3 0  9997
2 39427  97.8247  71.5661 0088358 255.7183 103.4206 14.81681229673119
0 GOMX 1
1 39430U 13066Q   26161.58084668  .00001546  00000-0  23679-3 0  9992
2 39430  97.6495   2.4607 0130161  98.5133 263.0849 14.69434465668942
0 CUBEBUG 2
1 39440U 13066AA  26161.09650600  .00003464  00000-0  32201-3 0  9996
2 39440  97.8902 110.0449 0059088  51.9853 308.6680 14.93705686675937
0 NEE 02 KRYSAOR
1 39441U 13066AB  26161.54565507  .00001714  00000-0  19173-3 0  9997
2 39441  97.8886 100.8079 0067743  91.4572 269.4405 14.86589658675210
0 FUNCUBE 1
1 39444U 13066AE  26161.56002196  .00005080  00000-0  31754-3 0  9991
2 39444  97.8263 132.8674 0035008 223.9951 135.8490 15.09408570678661
0 UWE-3
1 39446U 13066AG  26161.59836218  .00003805  00000-0  32851-3 0  9998
2 39446  97.8684 117.6280 0048596 343.1994  16.7615 14.96970973676594
0 BRITE TORONTO
1 40020U 14033L   26161.58304723  .00000603  00000-0  98553-4 0  9998
2 40020  97.9731 290.6330 0077376 298.5340  60.8094 14.72667572641249
0 DUCHIFAT 1
1 40021U 14033M   26161.43136475  .00098092  00000-0  10616-2 0  9991
2 40021  98.0468 219.6499 0004198 126.9864 233.1777 15.63249626654696
0 NANOSAT C BR1
1 40024U 14033Q   26161.54043282  .00014797  00000-0  49267-3 0  9994
2 40024  98.0734 193.3401 0003779 181.7238 178.3988 15.31244609652967
0 QB50P1
1 40025U 14033R   26161.55924750  .00007227  00000-0  35728-3 0  9991
2 40025  98.0970 172.2408 0007241 241.5773 118.4730 15.18160069652029
0 QB50P2
1 40032U 14033Y   26161.49581433  .00005829  00000-0  31531-3 0  9993
2 40032  98.0751 157.9598 0007303 184.9608 175.1552 15.15072964651653
0 PERSEUS M2
1 40037U 14033AD  26161.57301855  .00000676  00000-0  66540-4 0  9999
2 40037  97.9963 111.9792 0011312 329.4541  30.6019 14.95491359649799
