OBJECT_NAME,OBJECT_ID,EPOCH,MEAN_MOTION,ECCENTRICITY,INCLINATION,RA_OF_ASC_NODE,ARG_OF_PERICENTER,MEAN_ANOMALY,EPHEMERIS_TYPE,CLASSIFICATION_TYPE,NORAD_CAT_ID,ELEMENT_SET_NO,REV_AT_EPOCH,BSTAR,MEAN_MOTION_DOT,MEAN_MOTION_DDOT
CUTE-1 (CO-55),2003-031E,2026-06-10T07:02:25.997280,14.24331486,.0009062,98.6735,169.9388,198.4654,161.6197,0,U,27844,999,19069,.12935E-3,.255E-5,0
CUBESAT XI-IV (CO-57),2003-031J,2026-06-10T13:25:40.037088,14.23617305,.00086366,98.6767,169.9197,217.5980,142.4596,0,U,27848,999,19043,.11308922E-3,.214E-5,0
CUBESAT XI-V,2005-043F,2026-06-10T08:04:02.584128,14.72613094,.00132191,98.2977,316.8144,223.4430,136.5736,0,U,28895,999,10074,.20389042E-3,.1246E-4,0
CUTE-1.7+APD II (CO-65),2008-021C,2026-06-10T14:52:12.191520,15.09391098,.00103269,97.8272,142.9015,58.2820,301.9414,0,U,32785,999,98420,.31564414E-3,.4983E-4,0
CANX-2,2008-021H,2026-06-10T04:14:49.690464,15.05562263,.00118288,97.8622,140.8188,71.3594,288.8915,0,U,32790,999,98375,.21876972E-3,.309E-4,0
SEEDS II (CO-66),2008-021J,2026-06-10T11:25:37.431552,15.32520473,.00020419,97.7516,159.0539,26.6798,333.4547,0,U,32791,999,98626,.52178897E-3,.1632E-3,0
SWISSCUBE,2009-051B,2026-06-09T17:04:01.608672,14.62467613,.00055621,98.4042,68.4691,230.1201,129.9511,0,U,35932,999,88806,.19187016E-3,.922E-5,0
BEESAT-1,2009-051C,2026-06-10T12:54:53.824608,14.61709764,.00039441,98.3971,68.9599,243.2961,116.7836,0,U,35933,999,88821,.15360051E-3,.716E-5,0
ITUPSAT1,2009-051E,2026-06-09T23:24:07.439040,14.60430038,.00061248,98.4056,67.5878,261.1078,98.9428,0,U,35935,999,88768,.14898186E-3,.673E-5,0
TISAT 1,2010-035E,2026-06-10T14:00:39.205440,15.31457089,.00004649,98.0700,107.5480,172.0395,188.0852,0,U,36799,999,86669,.59832062E-3,.18113E-3,0
AEROCUBE 4.5A,2012-048K,2026-06-10T01:40:26.196960,15.90634459,.0019678,64.6258,52.8485,217.3689,142.6104,0,U,38767,999,37152,.11263E-2,.355417E-2,.54094E-4
STRAND-1,2013-009E,2026-06-10T05:35:36.828096,14.37159178,.0007466,98.3921,341.6387,249.0407,110.9981,0,U,39090,999,69606,.1011E-3,.258E-5,0
BRITE-AUSTRIA,2013-009F,2026-06-10T07:30:07.954848,14.36539349,.00089765,98.3993,340.9187,259.7198,100.2977,0,U,39091,999,69606,.66105194E-4,.151E-5,0
NEE-01 PEGASO,2013-018B,2026-06-09T21:31:01.316928,14.93627979,.0012551,98.1215,304.8067,181.9337,178.1836,0,U,39151,999,70961,.23819067E-3,.2457E-4,0
POPACS 2,2013-055E,2026-06-10T06:20:54.981600,14.91044989,.0417121,80.9903,152.1156,216.0318,141.2122,0,U,39269,999,66218,.20956E-3,.12321E-3,0
POPACS 3,2013-055F,2026-06-10T05:56:42.061920,14.55994863,.05527452,81.0014,236.7086,91.1070,275.3476,0,U,39270,999,63754,.23925327E-3,.10174E-3,0
ZACUBE-1 (TSHEPISOSAT),2013-066B,2026-06-10T03:24:07.668288,15.01145439,.00401131,97.8088,123.4403,272.4357,87.2274,0,U,39417,999,67967,.25692287E-3,.3283E-4,0
WNISAT-1,2013-066H,2026-06-10T08:21:48.413664,14.58051388,.0161723,97.7194,310.9904,253.3006,105.0390,0,U,39423,999,66573,.12694314E-3,.647E-5,0
TRITON-1,2013-066M,2026-06-10T14:38:21.643008,14.81681229,.00883579,97.8247,71.5661,255.7183,103.4206,0,U,39427,999,67311,.12744639E-3,.1014E-4,0
GOMX-1,2013-066Q,2026-06-10T13:56:25.153152,14.69434465,.01301609,97.6495,2.4607,98.5133,263.0849,0,U,39430,999,66894,.23678899E-3,.1546E-4,0
CUBEBUG-2 (LO-74),2013-066AA,2026-06-10T02:18:58.118400,14.93705686,.00590877,97.8902,110.0449,51.9853,308.6680,0,U,39440,999,67593,.32201289E-3,.3464E-4,0
NEE-02 KRYSAOR,2013-066AB,2026-06-10T13:05:44.598048,14.86589658,.00677431,97.8886,100.8079,91.4572,269.4405,0,U,39441,999,67521,.19173345E-3,.1714E-4,0
FUNCUBE-1 (AO-73),2013-066AE,2026-06-10T13:26:25.897344,15.09408570,.00350076,97.8263,132.8674,223.9951,135.8490,0,U,39444,999,67866,.317536E-3,.508E-4,0
UWE-3,2013-066AG,2026-06-10T14:21:38.492352,14.96970973,.00485957,97.8684,117.6280,343.1994,16.7615,0,U,39446,999,67659,.32850626E-3,.3805E-4,0
BRITE-CA1 (TORONTO),2014-033L,2026-06-10T13:59:35.280672,14.72667572,.00773765,97.9731,290.6330,298.5340,60.8094,0,U,40020,999,64124,.98553247E-4,.603E-5,0
DUCHIFAT-1,2014-033M,2026-06-10T10:21:09.914400,15.63249626,.00041976,98.0468,219.6499,126.9864,233.1777,0,U,40021,999,65469,.10615932E-2,.98092E-3,0
NANOSATC-BR1,2014-033Q,2026-06-10T12:58:13.395648,15.31244609,.00037786,98.0734,193.3401,181.7238,178.3988,0,U,40024,999,65296,.49266744E-3,.14797E-3,0
QB50P1,2014-033R,2026-06-10T13:25:18.984000,15.18160069,.00072406,98.0970,172.2408,241.5773,118.4730,0,U,40025,999,65202,.35728158E-3,.7227E-4,0
QB50P2,2014-033Y,2026-06-10T11:53:58.358112,15.15072964,.00073027,98.0751,157.9598,184.9608,175.1552,0,U,40032,999,65165,.31530919E-3,.5829E-4,0
PERSEUS-M2,2014-033AD,2026-06-10T13:45:08.802720,14.95491359,.00113119,97.9963,111.9792,329.4541,30.6019,0,U,40037,999,64979,.66539638E-4,.676E-5,0
